{"type": "FeatureCollection", "features": [ {"type": "Feature", "properties": {"norad_id": 38755, "name": "SPOT 6", "group": "resource", "lat": 21.775697917546776, "lon": -121.19000986867559, "alt_km": 697.0576271951886, "timestamp": "2025-12-16T19:34:23.921927+00:00", "meta": {"OBJECT_NAME": "SPOT 6", "OBJECT_ID": "2012-047A", "EPOCH": "2025-12-15T23:05:43.240128", "MEAN_MOTION": 14.58606466, "ECCENTRICITY": 0.00011927, "INCLINATION": 98.1572, "RA_OF_ASC_NODE": 54.6877, "ARG_OF_PERICENTER": 98.78, "MEAN_ANOMALY": 261.3534, "EPHEMERIS_TYPE": 0, "CLASSIFICATION_TYPE": "U", "NORAD_CAT_ID": 38755, "ELEMENT_SET_NO": 999, "REV_AT_EPOCH": 70634, "BSTAR": 7.604464e-05, "MEAN_MOTION_DOT": 3.09e-06, "MEAN_MOTION_DDOT": 0}, "tle": {"line1": "1 38755U 12047A   25349.96230602  .00000309  00000+0  76045-4 0  9990", "line2": "2 38755  98.1572  54.6877 0001192  98.7800 261.3534 14.58606466706344"}}, "geometry": {"type": "Point", "coordinates": [-121.19000986867559, 21.775697917546776]}}, {"type": "Feature", "properties": {"norad_id": 39019, "name": "PLEIADES 1B", "group": "resource", "lat": 54.789914364657264, "lon": 51.642648291209376, "alt_km": 691.8662874335887, "timestamp": "2025-12-16T19:34:23.921937+00:00", "meta": {"OBJECT_NAME": "PLEIADES 1B", "OBJECT_ID": "2012-068A", "EPOCH": "2025-12-15T21:54:55.719360", "MEAN_MOTION": 14.58556424, "ECCENTRICITY": 0.00012004, "INCLINATION": 98.1792, "RA_OF_ASC_NODE": 62.5145, "ARG_OF_PERICENTER": 83.9205, "MEAN_ANOMALY": 276.2131, "EPHEMERIS_TYPE": 0, "CLASSIFICATION_TYPE": "U", "NORAD_CAT_ID": 39019, "ELEMENT_SET_NO": 999, "REV_AT_EPOCH": 69413, "BSTAR": 0.00010181645, "MEAN_MOTION_DOT": 4.28e-06, "MEAN_MOTION_DDOT": 0}, "tle": {"line1": "1 39019U 12068A   25349.91314490  .00000428  00000+0  10182-3 0  9991", "line2": "2 39019  98.1792  62.5145 0001200  83.9205 276.2131 14.58556424694132"}}, "geometry": {"type": "Point", "coordinates": [51.642648291209376, 54.789914364657264]}}, {"type": "Feature", "properties": {"norad_id": 39030, "name": "GOKTURK 2", "group": "resource", "lat": 23.503458080320485, "lon": 15.636836751748413, "alt_km": 643.2863843717314, "timestamp": "2025-12-16T19:34:23.921948+00:00", "meta": {"OBJECT_NAME": "GOKTURK 2", "OBJECT_ID": "2012-073A", "EPOCH": "2025-12-15T23:20:03.988032", "MEAN_MOTION": 14.7529641, "ECCENTRICITY": 0.0001093, "INCLINATION": 97.6896, "RA_OF_ASC_NODE": 191.4668, "ARG_OF_PERICENTER": 105.7821, "MEAN_ANOMALY": 254.3509, "EPHEMERIS_TYPE": 0, "CLASSIFICATION_TYPE": "U", "NORAD_CAT_ID": 39030, "ELEMENT_SET_NO": 999, "REV_AT_EPOCH": 69749, "BSTAR": 8.544201e-05, "MEAN_MOTION_DOT": 5.32e-06, "MEAN_MOTION_DDOT": 0}, "tle": {"line1": "1 39030U 12073A   25349.97226838  .00000532  00000+0  85442-4 0  9992", "line2": "2 39030  97.6896 191.4668 0001093 105.7821 254.3509 14.75296410697496"}}, "geometry": {"type": "Point", "coordinates": [15.636836751748413, 23.503458080320485]}}, {"type": "Feature", "properties": {"norad_id": 39084, "name": "LANDSAT 8", "group": "resource", "lat": -24.511676797275847, "lon": -124.94441296434914, "alt_km": 708.393972839941, "timestamp": "2025-12-16T19:34:23.921958+00:00", "meta": {"OBJECT_NAME": "LANDSAT 8", "OBJECT_ID": "2013-008A", "EPOCH": "2025-12-15T21:12:43.882272", "MEAN_MOTION": 14.5711707, "ECCENTRICITY": 0.00010741, "INCLINATION": 98.207, "RA_OF_ASC_NODE": 57.9109, "ARG_OF_PERICENTER": 90.3694, "MEAN_ANOMALY": 269.7627, "EPHEMERIS_TYPE": 0, "CLASSIFICATION_TYPE": "U", "NORAD_CAT_ID": 39084, "ELEMENT_SET_NO": 999, "REV_AT_EPOCH": 67120, "BSTAR": 9.8403613e-05, "MEAN_MOTION_DOT": 3.98e-06, "MEAN_MOTION_DDOT": 0}, "tle": {"line1": "1 39084U 13008A   25349.88384123  .00000398  00000+0  98404-4 0  9994", "line2": "2 39084  98.2070  57.9109 0001074  90.3694 269.7627 14.57117070671204"}}, "geometry": {"type": "Point", "coordinates": [-124.94441296434914, -24.511676797275847]}}, {"type": "Feature", "properties": {"norad_id": 39086, "name": "SARAL", "group": "resource", "lat": -13.53548928359011, "lon": -7.383108225855537, "alt_km": 787.1690272319647, "timestamp": "2025-12-16T19:34:23.921969+00:00", "meta": {"OBJECT_NAME": "SARAL", "OBJECT_ID": "2013-009A", "EPOCH": "2025-12-15T22:33:37.236384", "MEAN_MOTION": 14.32758145, "ECCENTRICITY": 0.0002918, "INCLINATION": 98.5502, "RA_OF_ASC_NODE": 173.8287, "ARG_OF_PERICENTER": 102.7484, "MEAN_ANOMALY": 257.4026, "EPHEMERIS_TYPE": 0, "CLASSIFICATION_TYPE": "U", "NORAD_CAT_ID": 39086, "ELEMENT_SET_NO": 999, "REV_AT_EPOCH": 66936, "BSTAR": 6.0299529e-05, "MEAN_MOTION_DOT": 1.21e-06, "MEAN_MOTION_DDOT": 0}, "tle": {"line1": "1 39086U 13009A   25349.94001431  .00000121  00000+0  60300-4 0  9990", "line2": "2 39086  98.5502 173.8287 0002918 102.7484 257.4026 14.32758145669365"}}, "geometry": {"type": "Point", "coordinates": [-7.383108225855537, -13.53548928359011]}}, {"type": "Feature", "properties": {"norad_id": 39150, "name": "GAOFEN-1", "group": "resource", "lat": -71.01829574208836, "lon": -142.5112133899951, "alt_km": 654.43633908836, "timestamp": "2025-12-16T19:34:23.921979+00:00", "meta": {"OBJECT_NAME": "GAOFEN-1", "OBJECT_ID": "2013-018A", "EPOCH": "2025-12-15T22:55:01.174080", "MEAN_MOTION": 14.76540185, "ECCENTRICITY": 0.00183469, "INCLINATION": 97.9325, "RA_OF_ASC_NODE": 60.5573, "ARG_OF_PERICENTER": 133.0488, "MEAN_ANOMALY": 227.2262, "EPHEMERIS_TYPE": 0, "CLASSIFICATION_TYPE": "U", "NORAD_CAT_ID": 39150, "ELEMENT_SET_NO": 999, "REV_AT_EPOCH": 68120, "BSTAR": 0.0001008921, "MEAN_MOTION_DOT": 6.54e-06, "MEAN_MOTION_DDOT": 0}, "tle": {"line1": "1 39150U 13018A   25349.95487470  .00000654  00000+0  10089-3 0  9993", "line2": "2 39150  97.9325  60.5573 0018346 133.0488 227.2262 14.76540185681201"}}, "geometry": {"type": "Point", "coordinates": [-142.5112133899951, -71.01829574208836]}}, {"type": "Feature", "properties": {"norad_id": 39160, "name": "VNREDSAT 1", "group": "resource", "lat": 34.660634941833365, "lon": -128.516613431146, "alt_km": 674.7373449562201, "timestamp": "2025-12-16T19:34:23.921989+00:00", "meta": {"OBJECT_NAME": "VNREDSAT 1", "OBJECT_ID": "2013-021B", "EPOCH": "2025-12-15T23:14:34.402272", "MEAN_MOTION": 14.6492891, "ECCENTRICITY": 0.00012343, "INCLINATION": 97.9375, "RA_OF_ASC_NODE": 45.1302, "ARG_OF_PERICENTER": 77.6344, "MEAN_ANOMALY": 282.4998, "EPHEMERIS_TYPE": 0, "CLASSIFICATION_TYPE": "U", "NORAD_CAT_ID": 39160, "ELEMENT_SET_NO": 999, "REV_AT_EPOCH": 67346, "BSTAR": 0.00015479103, "MEAN_MOTION_DOT": 7.82e-06, "MEAN_MOTION_DDOT": 0}, "tle": {"line1": "1 39160U 13021B   25349.96845373  .00000782  00000+0  15479-3 0  9999", "line2": "2 39160  97.9375  45.1302 0001234  77.6344 282.4998 14.64928910673469"}}, "geometry": {"type": "Point", "coordinates": [-128.516613431146, 34.660634941833365]}}, {"type": "Feature", "properties": {"norad_id": 39227, "name": "ARIRANG-5 (KOMPSAT-5)", "group": "resource", "lat": 79.79171141725911, "lon": 127.07365799742772, "alt_km": 543.6588358784829, "timestamp": "2025-12-16T19:34:23.921999+00:00", "meta": {"OBJECT_NAME": "ARIRANG-5 (KOMPSAT-5)", "OBJECT_ID": "2013-042A", "EPOCH": "2025-12-16T08:01:54.632640", "MEAN_MOTION": 15.04519964, "ECCENTRICITY": 0.0003485, "INCLINATION": 97.6156, "RA_OF_ASC_NODE": 174.5873, "ARG_OF_PERICENTER": 48.2741, "MEAN_ANOMALY": 311.8783, "EPHEMERIS_TYPE": 0, "CLASSIFICATION_TYPE": "U", "NORAD_CAT_ID": 39227, "ELEMENT_SET_NO": 999, "REV_AT_EPOCH": 67636, "BSTAR": 0.00017472, "MEAN_MOTION_DOT": 2.387e-05, "MEAN_MOTION_DDOT": 0}, "tle": {"line1": "1 39227U 13042A   25350.33466010  .00002387  00000+0  17472-3 0  9994", "line2": "2 39227  97.6156 174.5873 0003485  48.2741 311.8783 15.04519964676363"}}, "geometry": {"type": "Point", "coordinates": [127.07365799742772, 79.79171141725911]}}, {"type": "Feature", "properties": {"norad_id": 39418, "name": "SKYSAT-A", "group": "resource", "lat": -20.140021345964023, "lon": -141.83552734866828, "alt_km": 523.0963732698183, "timestamp": "2025-12-16T19:34:23.922010+00:00", "meta": {"OBJECT_NAME": "SKYSAT-A", "OBJECT_ID": "2013-066C", "EPOCH": "2025-12-15T17:16:12.158688", "MEAN_MOTION": 15.11626206, "ECCENTRICITY": 0.00208727, "INCLINATION": 97.411, "RA_OF_ASC_NODE": 39.8378, "ARG_OF_PERICENTER": 225.6656, "MEAN_ANOMALY": 134.2864, "EPHEMERIS_TYPE": 0, "CLASSIFICATION_TYPE": "U", "NORAD_CAT_ID": 39418, "ELEMENT_SET_NO": 999, "REV_AT_EPOCH": 66075, "BSTAR": 0.00013125401, "MEAN_MOTION_DOT": 2.177e-05, "MEAN_MOTION_DDOT": 0}, "tle": {"line1": "1 39418U 13066C   25349.71958517  .00002177  00000+0  13125-3 0  9998", "line2": "2 39418  97.4110  39.8378 0020872 225.6656 134.2864 15.11626206660750"}}, "geometry": {"type": "Point", "coordinates": [-141.83552734866828, -20.140021345964023]}}, {"type": "Feature", "properties": {"norad_id": 39419, "name": "DUBAISAT-2", "group": "resource", "lat": -64.12066701708333, "lon": -3.2646123294128646, "alt_km": 541.4501481230564, "timestamp": "2025-12-16T19:34:23.922020+00:00", "meta": {"OBJECT_NAME": "DUBAISAT-2", "OBJECT_ID": "2013-066D", "EPOCH": "2025-12-15T23:09:50.194656", "MEAN_MOTION": 15.08394998, "ECCENTRICITY": 0.00101523, "INCLINATION": 97.4451, "RA_OF_ASC_NODE": 340.2734, "ARG_OF_PERICENTER": 310.0989, "MEAN_ANOMALY": 49.9349, "EPHEMERIS_TYPE": 0, "CLASSIFICATION_TYPE": "U", "NORAD_CAT_ID": 39419, "ELEMENT_SET_NO": 999, "REV_AT_EPOCH": 65875, "BSTAR": 0.00028595173, "MEAN_MOTION_DOT": 4.39e-05, "MEAN_MOTION_DDOT": 0}, "tle": {"line1": "1 39419U 13066D   25349.96516429  .00004390  00000+0  28595-3 0  9994", "line2": "2 39419  97.4451 340.2734 0010152 310.0989  49.9349 15.08394998658755"}}, "geometry": {"type": "Point", "coordinates": [-3.2646123294128646, -64.12066701708333]}}]}